API VERSION: 1.2
API SOURCE: NASA/JPL Horizons API



*******************************************************************************
Ephemeris / API_USER Mon Apr 13 11:58:52 2026 Pasadena, USA      / Horizons
*******************************************************************************
Target body name: Mercury (199)                   {source: DE441}
Center body name: Sun (10)                        {source: DE441}
Center-site name: BODY CENTER
*******************************************************************************
Start time      : A.D. 2025-Jan-23 04:20:00.0000 TDB
Stop  time      : A.D. 2025-Jan-25 04:20:00.0000 TDB
Step-size       : 60 minutes
*******************************************************************************
Center geodetic : 0.0, 0.0, 0.0                   {E-lon(deg),Lat(deg),Alt(km)}
Center cylindric: 0.0, 0.0, 0.0                   {E-lon(deg),Dxy(km),Dz(km)}
Center radii    : 695700.0, 695700.0, 695700.0 km {Equator_a, b, pole_c}
Output units    : AU-D
Calendar mode   : Mixed Julian/Gregorian
Output type     : GEOMETRIC cartesian states
Output format   : 3 (position, velocity, LT, range, range-rate)
Reference frame : Ecliptic of J2000.0
*******************************************************************************
            JDTDB,            Calendar Date (TDB),                      X,                      Y,                      Z,                     VX,                     VY,                     VZ,                     LT,                     RG,                     RR,
**************************************************************************************************************************************************************************************************************************************************************************
$$SOE
2460699.930555556, A.D. 2025-Jan-24 10:20:00.0000,  5.617186249482989E-03, -4.618127042093535E-01, -3.825523317288861E-02,  2.248914630804992E-02,  1.784858000650286E-03, -1.916876024638257E-03,  2.676539889304554E-03,  4.634285159715890E-01, -1.347810537532946E-03,
2460699.972222222, A.D. 2025-Jan-24 11:20:00.0000,  6.554218707108427E-03, -4.617371431804878E-01, -3.833500419560072E-02,  2.248839226185836E-02,  1.842073306230368E-03, -1.912131129487394E-03,  2.676214161674916E-03,  4.633721179808034E-01, -1.359292554255578E-03,
2460700.013888889, A.D. 2025-Jan-24 12:20:00.0000,  7.491217321048457E-03, -4.616591979411888E-01, -3.841457727235351E-02,  2.248752179721247E-02,  1.899300082283084E-03, -1.907374618881273E-03,  2.675885671274466E-03,  4.633152416310805E-01, -1.370771762054557E-03,
2460700.055555556, A.D. 2025-Jan-24 13:20:00.0000,  8.428177238788186E-03, -4.615788680159171E-01, -3.849395191920548E-02,  2.248653483021641E-02,  1.956538213713574E-03, -1.902606494530677E-03,  2.675554418782392E-03,  4.632578870400179E-01, -1.382248134080018E-03,
2460700.097222222, A.D. 2025-Jan-24 14:20:00.0000,  9.365093604305836E-03, -4.614961529339344E-01, -3.857312765228575E-02,  2.248543127643514E-02,  2.013787585168636E-03, -1.897826758118048E-03,  2.675220404884351E-03,  4.632000543263335E-01, -1.393721643406399E-03,
2460700.138888889, A.D. 2025-Jan-24 15:20:00.0000,  1.030196155805025E-02, -4.614110522293139E-01, -3.865210398779301E-02,  2.248421105089400E-02,  2.071048081033279E-03, -1.893035411297726E-03,  2.674883630272489E-03,  4.631417436098687E-01, -1.405192263031733E-03,
2460700.180555556, A.D. 2025-Jan-24 16:20:00.0000,  1.123877623691844E-02, -4.613235654409519E-01, -3.873088044199419E-02,  2.248287406807827E-02,  2.128319585427268E-03, -1.888232455696190E-03,  2.674544095645461E-03,  4.630829550115916E-01, -1.416659965876922E-03,
2460700.222222222, A.D. 2025-Jan-24 17:20:00.0000,  1.217553277423300E-02, -4.612336921125785E-01, -3.880945653122347E-02,  2.248142024193270E-02,  2.185601982201655E-03, -1.883417892912305E-03,  2.674201801708444E-03,  4.630236886536003E-01, -1.428124724785033E-03,
2460700.263888889, A.D. 2025-Jan-24 18:20:00.0000,  1.311222629971966E-02, -4.611414317927689E-01, -3.888783177188115E-02,  2.247984948586117E-02,  2.242895154935313E-03, -1.878591724517565E-03,  2.673856749173164E-03,  4.629639446591258E-01, -1.439586512520573E-03,
2460700.305555556, A.D. 2025-Jan-24 19:20:00.0000,  1.404885193948469E-02, -4.610467840349551E-01, -3.896600568043240E-02,  2.247816171272617E-02,  2.300198986931442E-03, -1.873753952056338E-03,  2.673508938757907E-03,  4.629037231525359E-01, -1.451045301768772E-03,
2460700.347222222, A.D. 2025-Jan-24 20:20:00.0000,  1.498540481599234E-02, -4.609497483974371E-01, -3.904397777340604E-02,  2.247635683484843E-02,  2.357513361214076E-03, -1.868904577046115E-03,  2.673158371187544E-03,  4.628430242593378E-01, -1.462501065134856E-03,
2460700.388888889, A.D. 2025-Jan-24 21:20:00.0000,  1.592188004804225E-02, -4.608503244433950E-01, -3.912174756739373E-02,  2.247443476400649E-02,  2.414838160524580E-03, -1.864043600977757E-03,  2.672805047193547E-03,  4.627818481061822E-01, -1.473953775143330E-03,
2460700.430555556, A.D. 2025-Jan-24 22:20:00.0000,  1.685827275074690E-02, -4.607485117409005E-01, -3.919931457904872E-02,  2.247239541143630E-02,  2.472173267318127E-03, -1.859171025315743E-03,  2.672448967514010E-03,  4.627201948208663E-01, -1.485403404237245E-03,
2460700.472222222, A.D. 2025-Jan-24 23:20:00.0000,  1.779457803550893E-02, -4.606443098629288E-01, -3.927667832508459E-02,  2.247023868783077E-02,  2.529518563760178E-03, -1.854286851498424E-03,  2.672090132893672E-03,  4.626580645323368E-01, -1.496849924777474E-03,
2460700.513888889, A.D. 2025-Jan-25 00:20:00.0000,  1.873079100999853E-02, -4.605377183873715E-01, -3.935383832227440E-02,  2.246796450333940E-02,  2.586873931722941E-03, -1.849391080938271E-03,  2.671728544083925E-03,  4.625954573706942E-01, -1.508293309041986E-03,
2460700.555555556, A.D. 2025-Jan-25 01:20:00.0000,  1.966690677813079E-02, -4.604287368970476E-01, -3.943079408744951E-02,  2.246557276756787E-02,  2.644239252781821E-03, -1.844483715022128E-03,  2.671364201842850E-03,  4.625323734671955E-01, -1.519733529225102E-03,
2460700.597222222, A.D. 2025-Jan-25 02:20:00.0000,  2.060292044004306E-02, -4.603173649797176E-01, -3.950754513749856E-02,  2.246306338957759E-02,  2.701614408211865E-03, -1.839564755111471E-03,  2.670997106935226E-03,  4.624688129542584E-01, -1.531170557436775E-03,
2460700.638888889, A.D. 2025-Jan-25 03:20:00.0000,  2.153882709207221E-02, -4.602036022280946E-01, -3.958409098936631E-02,  2.246043627788539E-02,  2.758999278984190E-03, -1.834634202542656E-03,  2.670627260132554E-03,  4.624047759654640E-01, -1.542604365701846E-03,
2460700.680555556, A.D. 2025-Jan-25 04:20:00.0000,  2.247462182673196E-02, -4.600874482398576E-01, -3.966043116005288E-02,  2.245769134046303E-02,  2.816393745762399E-03, -1.829692058627180E-03,  2.670254662213078E-03,  4.623402626355611E-01, -1.554034925959302E-03,
